NOAA 12                 
1 21263U 91032A   24326.89684274  .00000322  00000+0  15174-3 0  9991
2 21263  98.5720 314.5798 0012524 260.2548  99.7218 14.26474080743360
NOAA 12 DEB             
1 37831U 91032D   24326.58527000  .00018569  00000+0  35545-2 0  9993
2 37831  98.1988  11.3544 0005428 329.0716 162.1623 14.63852843691025
NOAA 12 DEB             
1 37832U 91032E   24326.11402000  .00010434  00000+0  26199-2 0  9993
2 37832  98.3283  18.0714 0010467 113.5341 268.2356 14.51432988689375
NOAA 12 DEB             
1 38546U 91032F   24325.95244991  .00002590  00000+0  87609-3 0  9998
2 38546  98.3471 321.5225 0011019 184.3310 205.2655 14.37631900676730
NOAA 12 DEB             
1 38547U 91032G   24323.67871623  .00000605  00000+0  24960-3 0  9990
2 38547  98.4712 311.3653 0003827 238.4994 121.5815 14.30281061680925
